[{"OBJECT_NAME":"KUIPER-00033","OBJECT_ID":"2025-088Y","EPOCH":"2026-03-09T08:27:15.717600","MEAN_MOTION":14.83473272,"ECCENTRICITY":0.00010258,"INCLINATION":51.8992,"RA_OF_ASC_NODE":127.3567,"ARG_OF_PERICENTER":44.0483,"MEAN_ANOMALY":316.0562,"EPHEMERIS_TYPE":0,"CLASSIFICATION_TYPE":"U","NORAD_CAT_ID":63746,"ELEMENT_SET_NO":999,"REV_AT_EPOCH":4756,"BSTAR":0.00069892366,"MEAN_MOTION_DOT":5.577e-5,"MEAN_MOTION_DDOT":0},{"OBJECT_NAME":"SL-14 R\/B","OBJECT_ID":"1981-117B","EPOCH":"2026-03-09T17:56:04.213536","MEAN_MOTION":14.87267707,"ECCENTRICITY":0.00186594,"INCLINATION":82.5251,"RA_OF_ASC_NODE":320.3846,"ARG_OF_PERICENTER":104.7501,"MEAN_ANOMALY":255.5785,"EPHEMERIS_TYPE":0,"CLASSIFICATION_TYPE":"U","NORAD_CAT_ID":12988,"ELEMENT_SET_NO":999,"REV_AT_EPOCH":37192,"BSTAR":6.5348474e-5,"MEAN_MOTION_DOT":6.15e-6,"MEAN_MOTION_DDOT":0}]
